NORAD_CAT_ID,OBJECT_NAME,OBJECT_TYPE,EPOCH,MEAN_MOTION,ECCENTRICITY,INCLINATION,RA_OF_ASC_NODE,ARG_OF_PERICENTER,MEAN_ANOMALY,BSTAR,MEAN_MOTION_DOT,MEAN_MOTION_DDOT,TLE_LINE0,TLE_LINE1,TLE_LINE2,SEMIMAJOR_AXIS,PERIOD,APOGEE,PERIGEE,DECAYED
53633.0,STARLINK-4593,PAYLOAD,2022-09-20 22:00:01,15.73240848,0.0001492,53.2149,170.2398,115.2996,156.7823,-0.00026367,-0.00037525,0.0,0 STARLINK-4593,1 53633U 22104AX  22263.91668981 -.00037525  00000-0 -26367-3 0  9993,2 53633  53.2149 170.2398 0001492 115.2996 156.7823 15.73240848  3776,6727.779,91.531,350.648,348.64,0.0
53633.0,STARLINK-4593,PAYLOAD,2022-09-21 22:00:00,15.7320655,0.0001465999999999,53.2149,165.2916,120.1582,58.622,0.00024116,0.00033369,0.0,0 STARLINK-4593,1 53633U 22104AX  22264.91667824  .00033369  00000-0  24116-3 0  9999,2 53633  53.2149 165.2916 0001466 120.1582  58.6220 15.73206550  1303,6727.876,91.533,350.728,348.755,0.0
53633.0,STARLINK-4593,PAYLOAD,2022-09-22 06:00:00,15.73238716,0.0001200999999999,53.2148,163.6429,117.9093,149.7909,3.1956e-06,-1.71e-06,0.0,0 STARLINK-4593,1 53633U 22104AX  22265.25001157 -.00000171  00000-0  31956-5 0  9996,2 53633  53.2148 163.6429 0001201 117.9093 149.7909 15.73238716  3982,6727.785,91.531,350.458,348.842,0.0
53633.0,STARLINK-4593,PAYLOAD,2022-09-22 14:00:01,15.73180994,0.00013,53.2152,161.9913,128.3665,228.3276,0.00055059,0.00077302,0.0,0 STARLINK-4593,1 53633U 22104AX  22265.58334491  .00077302  00000-0  55059-3 0  9999,2 53633  53.2152 161.9913 0001300 128.3665 228.3276 15.73180994  1306,6727.949000000001,91.534,350.689,348.94,0.0
53633.0,STARLINK-4593,PAYLOAD,2022-09-22 22:00:00,15.73254059,0.0001264999999999,53.2152,160.3433,120.853,324.7774,-0.00062858,-0.00088121,0.0,0 STARLINK-4593,1 53633U 22104AX  22265.91667824 -.00088121  00000-0 -62858-3 0  9993,2 53633  53.2152 160.3433 0001265 120.8530 324.7774 15.73254059  1302,6727.741,91.53,350.457,348.755,0.0
53633.0,STARLINK-4593,PAYLOAD,2022-09-23 06:00:00,15.73205632,0.000154,53.2171,158.6924,129.2188,45.2891,-1.9424e-05,-3.346e-05,0.0,0 STARLINK-4593,1 53633U 22104AX  22266.25001157 -.00003346  00000-0 -19424-4 0  9990,2 53633  53.2171 158.6924 0001540 129.2188  45.2891 15.73205632  4149,6727.879,91.533,350.78,348.708,0.0
53633.0,STARLINK-4593,PAYLOAD,2022-09-23 14:00:01,15.73202586,0.0001623,53.2172,157.0408,132.9661,130.4784,2.1895e-05,2.454e-05,0.0,0 STARLINK-4593,1 53633U 22104AX  22266.58334491  .00002454  00000-0  21895-4 0  9998,2 53633  53.2172 157.0408 0001623 132.9661 130.4784 15.73202586  1307,6727.888000000001,91.533,350.845,348.661,0.0
53633.0,STARLINK-4593,PAYLOAD,2022-09-23 22:00:00,15.73196454,0.0001284999999999,53.2149,155.3948,126.4555,226.0022,-8.003e-05,-0.00011834,0.0,0 STARLINK-4593,1 53633U 22104AX  22266.91667824 -.00011834  00000-0 -80030-4 0  9994,2 53633  53.2149 155.3948 0001285 126.4555 226.0022 15.73196454  4244,6727.905,91.533,350.635,348.906,0.0
53633.0,STARLINK-4593,PAYLOAD,2022-09-24 06:00:00,15.73208894,0.0001139999999999,53.2149,153.7456,123.5807,317.7924,0.00040998,0.00057333,0.0,0 STARLINK-4593,1 53633U 22104AX  22267.25001157  .00057333  00000-0  40998-3 0  9993,2 53633  53.2149 153.7456 0001140 123.5807 317.7924 15.73208894  4306,6727.87,91.533,350.50199999999984,348.968,0.0
53633.0,STARLINK-4593,PAYLOAD,2022-09-24 14:00:01,15.73240629,0.000123,53.215,152.0941,136.1123,34.2899,-6.8303e-05,-0.00010211,0.0,0 STARLINK-4593,1 53633U 22104AX  22267.58335648 -.00010211  00000-0 -68303-4 0  9991,2 53633  53.2150 152.0941 0001230 136.1123  34.2899 15.73240629  1301,6727.779,91.531,350.472,348.81699999999995,0.0
53633.0,STARLINK-4593,PAYLOAD,2022-09-24 22:00:00,15.73231422,0.0001176,53.215,150.4464,124.6948,134.6177,-0.00038272,-0.00054059,0.0,0 STARLINK-4593,1 53633U 22104AX  22267.91667824 -.00054059  00000-0 -38272-3 0  9991,2 53633  53.2150 150.4464 0001176 124.6948 134.6177 15.73231422  1304,6727.806,91.531,350.462,348.879,0.0
53633.0,STARLINK-4593,PAYLOAD,2022-09-25 14:00:01,15.73198772,0.0001559,53.2146,147.1458,127.8896,309.2948,-0.0001075999999999,-0.00015693,0.0,0 STARLINK-4593,1 53633U 22104AX  22268.58334491 -.00015693  00000-0 -10760-3 0  9999,2 53633  53.2146 147.1458 0001559 127.8896 309.2948 15.73198772  1303,6727.899,91.533,350.81300000000016,348.715,0.0
53633.0,STARLINK-4593,PAYLOAD,2022-09-25 22:00:01,15.73192625,0.0001493,53.2147,145.4978,121.0346,45.1306,-4.6252e-06,-1.269e-05,0.0,0 STARLINK-4593,1 53633U 22104AX  22268.91668981 -.00001269  00000-0 -46252-5 0  9991,2 53633  53.2147 145.4978 0001493 121.0346  45.1306 15.73192625  1300,6727.916,91.534,350.786,348.777,0.0
53633.0,STARLINK-4593,PAYLOAD,2022-09-26 10:00:00,15.73142501,0.0001318,53.2147,143.0224,131.2311,348.1846,0.0003967,0.00055284,0.0,0 STARLINK-4593,1 53633U 22104AX  22269.41667824  .00055284  00000-0  39670-3 0  9990,2 53633  53.2147 143.0224 0001318 131.2311 348.1846 15.73142501  4642,6728.059,91.537,350.811,349.037,0.0
53633.0,STARLINK-4593,PAYLOAD,2022-09-26 14:00:01,15.73143922,0.0001418,53.2145,142.1969,131.1053,212.7491,0.00063017,0.00088544,0.0,0 STARLINK-4593,1 53633U 22104AX  22269.58334491  .00088544  00000-0  63017-3 0  9996,2 53633  53.2145 142.1969 0001418 131.1053 212.7491 15.73143922  1309,6728.055,91.536,350.874,348.966,0.0
53633.0,STARLINK-4593,PAYLOAD,2022-09-26 22:00:00,15.73232936,0.0001348,53.2143,140.5494,120.9468,311.8054,-0.00044587,-0.00062818,0.0,0 STARLINK-4593,1 53633U 22104AX  22269.91667824 -.00062818  00000-0 -44587-3 0  9991,2 53633  53.2143 140.5494 0001348 120.9468 311.8054 15.73232936  1300,6727.801,91.531,350.5730000000001,348.759,0.0
53633.0,STARLINK-4593,PAYLOAD,2022-09-27 06:00:00,15.73195192,0.0001406999999999,53.2138,138.8993,120.9123,40.7854,0.00015085,0.00020598,0.0,0 STARLINK-4593,1 53633U 22104AX  22270.25001157  .00020598  00000-0  15085-3 0  9999,2 53633  53.2138 138.8993 0001407 120.9123  40.7854 15.73195192  4774,6727.909000000002,91.533,350.72,348.827,0.0
53633.0,STARLINK-4593,PAYLOAD,2022-09-27 14:00:01,15.73212181,0.0001515,53.2138,137.2482,132.0145,118.6247,0.00074834,0.00105792,0.0,0 STARLINK-4593,1 53633U 22104AX  22270.58334491  .00105792  00000-0  74834-3 0  9992,2 53633  53.2138 137.2482 0001515 132.0145 118.6247 15.73212181  4823,6727.86,91.532,350.745,348.706,0.0
53633.0,STARLINK-4593,PAYLOAD,2022-09-27 22:00:01,15.73306078,0.0001274,53.2138,135.6004,129.0497,210.6395,-0.00049109,-0.00069288,0.0,0 STARLINK-4593,1 53633U 22104AX  22270.91668981 -.00069288  00000-0 -49109-3 0  9991,2 53633  53.2138 135.6004 0001274 129.0497 210.6395 15.73306078  1309,6727.593000000003,91.527,350.315,348.601,0.0
53633.0,STARLINK-4593,PAYLOAD,2022-09-28 06:00:00,15.73307233,0.0001142,53.2139,133.9501,129.2598,299.387,-0.00047562,-0.00067144,0.0,0 STARLINK-4593,1 53633U 22104AX  22271.25001157 -.00067144  00000-0 -47562-3 0  9995,2 53633  53.2139 133.9501 0001142 129.2598 299.3870 15.73307233  4928,6727.589,91.527,350.223,348.686,0.0
53633.0,STARLINK-4593,PAYLOAD,2022-09-28 14:00:01,15.73257164,0.0001438,53.2143,132.2984,130.5375,27.1434,-0.00058713,-0.00082419,0.0,0 STARLINK-4593,1 53633U 22104AX  22271.58334491 -.00082419  00000-0 -58713-3 0  9993,2 53633  53.2143 132.2984 0001438 130.5375  27.1434 15.73257164  1305,6727.732,91.53,350.565,348.63,0.0
53633.0,STARLINK-4593,PAYLOAD,2022-09-28 22:00:00,15.73129725,0.0001384,53.214,130.651,120.3791,126.2647,4.0596e-05,5.064e-05,0.0,0 STARLINK-4593,1 53633U 22104AX  22271.91667824  .00005064  00000-0  40596-4 0  9999,2 53633  53.2140 130.6510 0001384 120.3791 126.2647 15.73129725  1306,6728.096,91.537,350.892,349.029,0.0
53633.0,STARLINK-4593,PAYLOAD,2022-09-29 14:00:01,15.7317775,0.0001426999999999,53.2138,127.3501,134.9273,289.4487,0.00062309,0.0008766,0.0,0 STARLINK-4593,1 53633U 22104AX  22272.58334491  .00087660  00000-0  62309-3 0  9991,2 53633  53.2138 127.3501 0001427 134.9273 289.4487 15.73177750  5130,6727.959,91.534,350.784,348.86400000000015,0.0
53633.0,STARLINK-4593,PAYLOAD,2022-09-29 20:00:01,15.73259676,0.000129,53.2138,126.1145,126.5034,274.6289,-0.00042883,-0.00060525,0.0,0 STARLINK-4593,1 53633U 22104AX  22272.83335648 -.00060525  00000-0 -42883-3 0  9992,2 53633  53.2138 126.1145 0001290 126.5034 274.6289 15.73259676  5179,6727.725,91.53,350.458,348.722,0.0
53633.0,STARLINK-4593,PAYLOAD,2022-09-29 22:00:00,15.73248375,0.0001305,53.2139,125.7026,123.6228,29.6818,-0.00040491,-0.00057179,0.0,0 STARLINK-4593,1 53633U 22104AX  22272.91667824 -.00057179  00000-0 -40491-3 0  9999,2 53633  53.2139 125.7026 0001305 123.6228  29.6818 15.73248375  1304,6727.757,91.53,350.5,348.744,0.0
53633.0,STARLINK-4593,PAYLOAD,2022-09-30 14:00:01,15.73213328,0.0001557,53.2146,122.4011,127.2679,203.9141,-0.0001976,-0.00028276,0.0,0 STARLINK-4593,1 53633U 22104AX  22273.58334491 -.00028276  00000-0 -19760-3 0  9995,2 53633  53.2146 122.4011 0001557 127.2679 203.9141 15.73213328  1305,6727.857,91.532,350.77,348.675,0.0
53633.0,STARLINK-4593,PAYLOAD,2022-09-30 16:00:00,15.73229947,0.0001494,53.215,121.9891,127.4733,315.9371,-0.00051408,-0.00072245,0.0,0 STARLINK-4593,1 53633U 22104AX  22273.66667824 -.00072245  00000-0 -51408-3 0  9993,2 53633  53.2150 121.9891 0001494 127.4733 315.9371 15.73229947  5311,6727.81,91.531,350.68,348.67,0.0
53633.0,STARLINK-4593,PAYLOAD,2022-09-30 22:00:00,15.7317685,0.0001281,53.2145,120.7537,120.6276,299.5208,0.00054579,0.00076603,0.0,0 STARLINK-4593,1 53633U 22104AX  22273.91667824  .00076603  00000-0  54579-3 0  9993,2 53633  53.2145 120.7537 0001281 120.6276 299.5208 15.73176850  1305,6727.9609999999975,91.535,350.68800000000016,348.964,0.0
53633.0,STARLINK-4593,PAYLOAD,2022-10-01 14:00:01,15.73234084,0.0001437,53.2145,117.4527,131.8512,106.1717,-0.00053192,-0.00074721,0.0,0 STARLINK-4593,1 53633U 22104AX  22274.58334491 -.00074721  00000-0 -53192-3 0  9999,2 53633  53.2145 117.4527 0001437 131.8512 106.1717 15.73234084  1309,6727.7980000000025,91.531,350.63,348.696,0.0
